STARLINK-6329           
1 56525U 23065Y   25260.47753590  .00008409  00000+0  64946-3 0  9996
2 56525  43.0027  71.1402 0000666 263.1388  96.9378 15.01786102130574
STARLINK-6317           
1 56526U 23065Z   25260.48094866  .00000228  00000+0  31981-4 0  9997
2 56526  43.0050  71.1639 0001336 268.7290  91.3399 15.02536672130579
STARLINK-6335           
1 56527U 23065AA  25261.47031512  .00002300  00000+0  18513-3 0  9995
2 56527  43.0034  65.6836 0001011 176.4651 183.6199 15.02558865130723
STARLINK-6337           
1 56528U 23065AB  25260.94074425  .00000137  00000+0  25223-4 0  9990
2 56528  43.0040  68.5909 0001222 275.3704  84.6999 15.02538987130648
STARLINK-6307           
1 56529U 23065AC  25261.46184112  .00001336  00000+0  11395-3 0  9990
2 56529  43.0036  53.4660 0001197 261.9664  98.1042 15.02528150130862
STARLINK-6318           
1 56530U 23065AD  25260.85158235 -.00003451  00000+0 -24037-3 0  9990
2 56530  43.0038  43.6094 0001145 261.7856  98.2857 15.02555987130922
STARLINK-6280           
1 56531U 23065AE  25261.45851371 -.00000048  00000+0  11547-4 0  9990
2 56531  43.0039  53.4419 0001279 269.1282  90.9414 15.02534280130861
STARLINK-6319           
1 56532U 23065AF  25261.46849979  .00000643  00000+0  62632-4 0  9994
2 56532  43.0044  53.5152 0001212 275.2929  84.7775 15.02539650130863
STARLINK-6310           
1 56533U 23065AG  25261.45185375 -.00000335  00000+0 -97629-5 0  9992
2 56533  43.0034  53.3871 0001113 250.6797 109.3925 15.02531946130860
STARLINK-6308           
1 56534U 23065AH  25261.46517073  .00000244  00000+0  33120-4 0  9990
2 56534  43.0041  53.4900 0001189 265.3553  94.7154 15.02536634130869
STARLINK-6309           
1 56535U 23065AJ  25260.91951964 -.00000080  00000+0  91802-5 0  9992
2 56535  43.0021  82.3089 0001177 259.7108 100.3602 15.02536791130481
STARLINK-6312           
1 56536U 23065AK  25259.25089086  .00001441  00000+0  12165-3 0  9999
2 56536  43.0037  91.2894 0001593 277.1280  82.9382 15.02549833130233
STARLINK-6311           
1 56537U 23065AL  25260.51732776 -.00000219  00000+0 -11471-5 0  9997
2 56537  43.0047  84.4549 0000946 275.0980  84.9755 15.02534182130429
STARLINK-6314           
1 56538U 23065AM  25261.44852208  .00000506  00000+0  52559-4 0  9992
2 56538  43.0035  53.3605 0001325 260.7908  99.2784 15.02533113130860
STARLINK-6135           
1 56539U 23065AN  25260.97267694  .00000181  00000+0  28507-4 0  9994
2 56539  43.0025  81.8519 0001290 266.4161  93.6533 15.02535703130491
STARLINK-6136           
1 56540U 23065AP  25261.50116923  .00000568  00000+0  57139-4 0  9996
2 56540  43.0033  78.9390 0001220 264.8913  95.1791 15.02539264130574
