[{"OBJECT_NAME":"STARLINK-6329","OBJECT_ID":"2023-065Y","EPOCH":"2025-09-17T11:27:39.101760","MEAN_MOTION":15.01786102,"ECCENTRICITY":6.66e-5,"INCLINATION":43.0027,"RA_OF_ASC_NODE":71.1402,"ARG_OF_PERICENTER":263.1388,"MEAN_ANOMALY":96.9378,"EPHEMERIS_TYPE":0,"CLASSIFICATION_TYPE":"U","NORAD_CAT_ID":56525,"ELEMENT_SET_NO":999,"REV_AT_EPOCH":13057,"BSTAR":0.00064946033,"MEAN_MOTION_DOT":8.409e-5,"MEAN_MOTION_DDOT":0},{"OBJECT_NAME":"STARLINK-6317","OBJECT_ID":"2023-065Z","EPOCH":"2025-09-17T11:32:33.964224","MEAN_MOTION":15.02536672,"ECCENTRICITY":0.00013361,"INCLINATION":43.005,"RA_OF_ASC_NODE":71.1639,"ARG_OF_PERICENTER":268.729,"MEAN_ANOMALY":91.3399,"EPHEMERIS_TYPE":0,"CLASSIFICATION_TYPE":"U","NORAD_CAT_ID":56526,"ELEMENT_SET_NO":999,"REV_AT_EPOCH":13057,"BSTAR":3.1981475e-5,"MEAN_MOTION_DOT":2.28e-6,"MEAN_MOTION_DDOT":0},{"OBJECT_NAME":"STARLINK-6335","OBJECT_ID":"2023-065AA","EPOCH":"2025-09-18T11:17:15.226368","MEAN_MOTION":15.02558865,"ECCENTRICITY":0.0001011,"INCLINATION":43.0034,"RA_OF_ASC_NODE":65.6836,"ARG_OF_PERICENTER":176.4651,"MEAN_ANOMALY":183.6199,"EPHEMERIS_TYPE":0,"CLASSIFICATION_TYPE":"U","NORAD_CAT_ID":56527,"ELEMENT_SET_NO":999,"REV_AT_EPOCH":13072,"BSTAR":0.0001851348,"MEAN_MOTION_DOT":2.3e-5,"MEAN_MOTION_DDOT":0},{"OBJECT_NAME":"STARLINK-6337","OBJECT_ID":"2023-065AB","EPOCH":"2025-09-17T22:34:40.303200","MEAN_MOTION":15.02538987,"ECCENTRICITY":0.00012222,"INCLINATION":43.004,"RA_OF_ASC_NODE":68.5909,"ARG_OF_PERICENTER":275.3704,"MEAN_ANOMALY":84.6999,"EPHEMERIS_TYPE":0,"CLASSIFICATION_TYPE":"U","NORAD_CAT_ID":56528,"ELEMENT_SET_NO":999,"REV_AT_EPOCH":13064,"BSTAR":2.5222872e-5,"MEAN_MOTION_DOT":1.37e-6,"MEAN_MOTION_DDOT":0},{"OBJECT_NAME":"STARLINK-6307","OBJECT_ID":"2023-065AC","EPOCH":"2025-09-18T11:05:03.072768","MEAN_MOTION":15.0252815,"ECCENTRICITY":0.00011971,"INCLINATION":43.0036,"RA_OF_ASC_NODE":53.466,"ARG_OF_PERICENTER":261.9664,"MEAN_ANOMALY":98.1042,"EPHEMERIS_TYPE":0,"CLASSIFICATION_TYPE":"U","NORAD_CAT_ID":56529,"ELEMENT_SET_NO":999,"REV_AT_EPOCH":13086,"BSTAR":0.00011394584,"MEAN_MOTION_DOT":1.336e-5,"MEAN_MOTION_DDOT":0},{"OBJECT_NAME":"STARLINK-6318","OBJECT_ID":"2023-065AD","EPOCH":"2025-09-17T20:26:16.715040","MEAN_MOTION":15.02555987,"ECCENTRICITY":0.00011454,"INCLINATION":43.0038,"RA_OF_ASC_NODE":43.6094,"ARG_OF_PERICENTER":261.7856,"MEAN_ANOMALY":98.2857,"EPHEMERIS_TYPE":0,"CLASSIFICATION_TYPE":"U","NORAD_CAT_ID":56530,"ELEMENT_SET_NO":999,"REV_AT_EPOCH":13092,"BSTAR":-0.0002403651,"MEAN_MOTION_DOT":-3.451e-5,"MEAN_MOTION_DDOT":0},{"OBJECT_NAME":"STARLINK-6280","OBJECT_ID":"2023-065AE","EPOCH":"2025-09-18T11:00:15.584544","MEAN_MOTION":15.0253428,"ECCENTRICITY":0.00012793,"INCLINATION":43.0039,"RA_OF_ASC_NODE":53.4419,"ARG_OF_PERICENTER":269.1282,"MEAN_ANOMALY":90.9414,"EPHEMERIS_TYPE":0,"CLASSIFICATION_TYPE":"U","NORAD_CAT_ID":56531,"ELEMENT_SET_NO":999,"REV_AT_EPOCH":13086,"BSTAR":1.1546961e-5,"MEAN_MOTION_DOT":-4.8e-7,"MEAN_MOTION_DDOT":0},{"OBJECT_NAME":"STARLINK-6319","OBJECT_ID":"2023-065AF","EPOCH":"2025-09-18T11:14:38.381856","MEAN_MOTION":15.0253965,"ECCENTRICITY":0.0001212,"INCLINATION":43.0044,"RA_OF_ASC_NODE":53.5152,"ARG_OF_PERICENTER":275.2929,"MEAN_ANOMALY":84.7775,"EPHEMERIS_TYPE":0,"CLASSIFICATION_TYPE":"U","NORAD_CAT_ID":56532,"ELEMENT_SET_NO":999,"REV_AT_EPOCH":13086,"BSTAR":6.2631775e-5,"MEAN_MOTION_DOT":6.43e-6,"MEAN_MOTION_DDOT":0},{"OBJECT_NAME":"STARLINK-6310","OBJECT_ID":"2023-065AG","EPOCH":"2025-09-18T10:50:40.164000","MEAN_MOTION":15.02531946,"ECCENTRICITY":0.00011132,"INCLINATION":43.0034,"RA_OF_ASC_NODE":53.3871,"ARG_OF_PERICENTER":250.6797,"MEAN_ANOMALY":109.3925,"EPHEMERIS_TYPE":0,"CLASSIFICATION_TYPE":"U","NORAD_CAT_ID":56533,"ELEMENT_SET_NO":999,"REV_AT_EPOCH":13086,"BSTAR":-9.762891e-6,"MEAN_MOTION_DOT":-3.35e-6,"MEAN_MOTION_DDOT":0},{"OBJECT_NAME":"STARLINK-6308","OBJECT_ID":"2023-065AH","EPOCH":"2025-09-18T11:09:50.751072","MEAN_MOTION":15.02536634,"ECCENTRICITY":0.00011897,"INCLINATION":43.0041,"RA_OF_ASC_NODE":53.49,"ARG_OF_PERICENTER":265.3553,"MEAN_ANOMALY":94.7154,"EPHEMERIS_TYPE":0,"CLASSIFICATION_TYPE":"U","NORAD_CAT_ID":56534,"ELEMENT_SET_NO":999,"REV_AT_EPOCH":13086,"BSTAR":3.3119613e-5,"MEAN_MOTION_DOT":2.44e-6,"MEAN_MOTION_DDOT":0},{"OBJECT_NAME":"STARLINK-6309","OBJECT_ID":"2023-065AJ","EPOCH":"2025-09-17T22:04:06.496896","MEAN_MOTION":15.02536791,"ECCENTRICITY":0.00011775,"INCLINATION":43.0021,"RA_OF_ASC_NODE":82.3089,"ARG_OF_PERICENTER":259.7108,"MEAN_ANOMALY":100.3602,"EPHEMERIS_TYPE":0,"CLASSIFICATION_TYPE":"U","NORAD_CAT_ID":56535,"ELEMENT_SET_NO":999,"REV_AT_EPOCH":13048,"BSTAR":9.180179e-6,"MEAN_MOTION_DOT":-8.0e-7,"MEAN_MOTION_DDOT":0},{"OBJECT_NAME":"STARLINK-6312","OBJECT_ID":"2023-065AK","EPOCH":"2025-09-16T06:01:16.970304","MEAN_MOTION":15.02549833,"ECCENTRICITY":0.00015933,"INCLINATION":43.0037,"RA_OF_ASC_NODE":91.2894,"ARG_OF_PERICENTER":277.128,"MEAN_ANOMALY":82.9382,"EPHEMERIS_TYPE":0,"CLASSIFICATION_TYPE":"U","NORAD_CAT_ID":56536,"ELEMENT_SET_NO":999,"REV_AT_EPOCH":13023,"BSTAR":0.00012165245,"MEAN_MOTION_DOT":1.441e-5,"MEAN_MOTION_DDOT":0},{"OBJECT_NAME":"STARLINK-6311","OBJECT_ID":"2023-065AL","EPOCH":"2025-09-17T12:24:57.118464","MEAN_MOTION":15.02534182,"ECCENTRICITY":9.469e-5,"INCLINATION":43.0047,"RA_OF_ASC_NODE":84.4549,"ARG_OF_PERICENTER":275.098,"MEAN_ANOMALY":84.9755,"EPHEMERIS_TYPE":0,"CLASSIFICATION_TYPE":"U","NORAD_CAT_ID":56537,"ELEMENT_SET_NO":999,"REV_AT_EPOCH":13042,"BSTAR":-1.147066e-6,"MEAN_MOTION_DOT":-2.19e-6,"MEAN_MOTION_DDOT":0},{"OBJECT_NAME":"STARLINK-6314","OBJECT_ID":"2023-065AM","EPOCH":"2025-09-18T10:45:52.307712","MEAN_MOTION":15.02533113,"ECCENTRICITY":0.00013259,"INCLINATION":43.0035,"RA_OF_ASC_NODE":53.3605,"ARG_OF_PERICENTER":260.7908,"MEAN_ANOMALY":99.2784,"EPHEMERIS_TYPE":0,"CLASSIFICATION_TYPE":"U","NORAD_CAT_ID":56538,"ELEMENT_SET_NO":999,"REV_AT_EPOCH":13086,"BSTAR":5.2558821e-5,"MEAN_MOTION_DOT":5.06e-6,"MEAN_MOTION_DDOT":0},{"OBJECT_NAME":"STARLINK-6135","OBJECT_ID":"2023-065AN","EPOCH":"2025-09-17T23:20:39.287616","MEAN_MOTION":15.02535703,"ECCENTRICITY":0.00012906,"INCLINATION":43.0025,"RA_OF_ASC_NODE":81.8519,"ARG_OF_PERICENTER":266.4161,"MEAN_ANOMALY":93.6533,"EPHEMERIS_TYPE":0,"CLASSIFICATION_TYPE":"U","NORAD_CAT_ID":56539,"ELEMENT_SET_NO":999,"REV_AT_EPOCH":13049,"BSTAR":2.850698e-5,"MEAN_MOTION_DOT":1.81e-6,"MEAN_MOTION_DDOT":0},{"OBJECT_NAME":"STARLINK-6136","OBJECT_ID":"2023-065AP","EPOCH":"2025-09-18T12:01:41.021472","MEAN_MOTION":15.02539264,"ECCENTRICITY":0.00012201,"INCLINATION":43.0033,"RA_OF_ASC_NODE":78.939,"ARG_OF_PERICENTER":264.8913,"MEAN_ANOMALY":95.1791,"EPHEMERIS_TYPE":0,"CLASSIFICATION_TYPE":"U","NORAD_CAT_ID":56540,"ELEMENT_SET_NO":999,"REV_AT_EPOCH":13057,"BSTAR":5.7138803e-5,"MEAN_MOTION_DOT":5.68e-6,"MEAN_MOTION_DDOT":0}]
